STARLINK-4467           
1 53686U 22105AQ  26068.63017803  .00006564  00000+0  51511-3 0  9994
2 53686  97.6031 310.2032 0002534 167.7420 192.3866 15.01256410193236
KUIPER-00139            
1 65765U 25217D   26068.30974975  .00011274  00000+0  87196-3 0  9990
2 65765  51.8865  35.5400 0007119 318.9010  41.1425 15.01890214 24959
